[{"OBJECT_NAME":"DIRECTV 11","OBJECT_ID":"2008-013A","EPOCH":"2026-03-04T04:27:38.803392","MEAN_MOTION":1.00271748,"ECCENTRICITY":2.934e-5,"INCLINATION":0.0179,"RA_OF_ASC_NODE":324.7273,"ARG_OF_PERICENTER":11.5203,"MEAN_ANOMALY":153.3998,"EPHEMERIS_TYPE":0,"CLASSIFICATION_TYPE":"U","NORAD_CAT_ID":32729,"ELEMENT_SET_NO":999,"REV_AT_EPOCH":4454,"BSTAR":0,"MEAN_MOTION_DOT":-1.38e-6,"MEAN_MOTION_DDOT":0},{"OBJECT_NAME":"GALAXY 18 (G-18)","OBJECT_ID":"2008-024A","EPOCH":"2026-03-04T09:41:38.546304","MEAN_MOTION":1.00270856,"ECCENTRICITY":0.0003198,"INCLINATION":0.0238,"RA_OF_ASC_NODE":162.5598,"ARG_OF_PERICENTER":205.014,"MEAN_ANOMALY":177.0059,"EPHEMERIS_TYPE":0,"CLASSIFICATION_TYPE":"U","NORAD_CAT_ID":32951,"ELEMENT_SET_NO":999,"REV_AT_EPOCH":4480,"BSTAR":0,"MEAN_MOTION_DOT":0,"MEAN_MOTION_DDOT":0},{"OBJECT_NAME":"INTELSAT 25 (IS-25)","OBJECT_ID":"2008-034A","EPOCH":"2026-03-04T10:52:38.525952","MEAN_MOTION":1.00270409,"ECCENTRICITY":0.0003741,"INCLINATION":2.4376,"RA_OF_ASC_NODE":81.6189,"ARG_OF_PERICENTER":244.8618,"MEAN_ANOMALY":327.3647,"EPHEMERIS_TYPE":0,"CLASSIFICATION_TYPE":"U","NORAD_CAT_ID":33153,"ELEMENT_SET_NO":999,"REV_AT_EPOCH":6464,"BSTAR":0,"MEAN_MOTION_DOT":-2.35e-6,"MEAN_MOTION_DDOT":0},{"OBJECT_NAME":"GALAXY 19 (G-19)","OBJECT_ID":"2008-045A","EPOCH":"2026-03-04T07:20:38.672160","MEAN_MOTION":1.00271876,"ECCENTRICITY":0.00031276,"INCLINATION":0.0498,"RA_OF_ASC_NODE":264.9776,"ARG_OF_PERICENTER":91.8237,"MEAN_ANOMALY":178.3953,"EPHEMERIS_TYPE":0,"CLASSIFICATION_TYPE":"U","NORAD_CAT_ID":33376,"ELEMENT_SET_NO":999,"REV_AT_EPOCH":6385,"BSTAR":0,"MEAN_MOTION_DOT":-1.51e-6,"MEAN_MOTION_DDOT":0},{"OBJECT_NAME":"FM-5","OBJECT_ID":"2009-034A","EPOCH":"2026-03-04T15:31:06.557952","MEAN_MOTION":1.00270141,"ECCENTRICITY":8.42e-5,"INCLINATION":0.039,"RA_OF_ASC_NODE":273.672,"ARG_OF_PERICENTER":315.9649,"MEAN_ANOMALY":79.3535,"EPHEMERIS_TYPE":0,"CLASSIFICATION_TYPE":"U","NORAD_CAT_ID":35493,"ELEMENT_SET_NO":999,"REV_AT_EPOCH":4559,"BSTAR":0,"MEAN_MOTION_DOT":-2.11e-6,"MEAN_MOTION_DDOT":0},{"OBJECT_NAME":"INTELSAT 14 (IS-14)","OBJECT_ID":"2009-064A","EPOCH":"2026-03-04T08:06:38.530080","MEAN_MOTION":1.00271298,"ECCENTRICITY":0.00025905,"INCLINATION":0.0205,"RA_OF_ASC_NODE":94.5133,"ARG_OF_PERICENTER":264.2434,"MEAN_ANOMALY":239.9777,"EPHEMERIS_TYPE":0,"CLASSIFICATION_TYPE":"U","NORAD_CAT_ID":36097,"ELEMENT_SET_NO":999,"REV_AT_EPOCH":5955,"BSTAR":0,"MEAN_MOTION_DOT":-2.85e-6,"MEAN_MOTION_DDOT":0},{"OBJECT_NAME":"INTELSAT 15 (IS-15)","OBJECT_ID":"2009-067A","EPOCH":"2026-03-04T18:04:38.818848","MEAN_MOTION":1.00269962,"ECCENTRICITY":0.0002401,"INCLINATION":0.0197,"RA_OF_ASC_NODE":204.6455,"ARG_OF_PERICENTER":150.011,"MEAN_ANOMALY":164.1279,"EPHEMERIS_TYPE":0,"CLASSIFICATION_TYPE":"U","NORAD_CAT_ID":36106,"ELEMENT_SET_NO":999,"REV_AT_EPOCH":4018,"BSTAR":0,"MEAN_MOTION_DOT":-1.95e-6,"MEAN_MOTION_DDOT":0},{"OBJECT_NAME":"DIRECTV 12","OBJECT_ID":"2009-075A","EPOCH":"2026-03-04T08:33:38.625984","MEAN_MOTION":1.00272003,"ECCENTRICITY":3.566e-5,"INCLINATION":0.0183,"RA_OF_ASC_NODE":331.5453,"ARG_OF_PERICENTER":37.6752,"MEAN_ANOMALY":178.5747,"EPHEMERIS_TYPE":0,"CLASSIFICATION_TYPE":"U","NORAD_CAT_ID":36131,"ELEMENT_SET_NO":999,"REV_AT_EPOCH":4550,"BSTAR":0,"MEAN_MOTION_DOT":-1.15e-6,"MEAN_MOTION_DDOT":0},{"OBJECT_NAME":"INTELSAT 16 (IS-16)","OBJECT_ID":"2010-006A","EPOCH":"2026-03-04T07:04:38.539200","MEAN_MOTION":1.00268007,"ECCENTRICITY":0.00020487,"INCLINATION":0.0246,"RA_OF_ASC_NODE":131.0947,"ARG_OF_PERICENTER":226.9808,"MEAN_ANOMALY":193.9417,"EPHEMERIS_TYPE":0,"CLASSIFICATION_TYPE":"U","NORAD_CAT_ID":36397,"ELEMENT_SET_NO":999,"REV_AT_EPOCH":5860,"BSTAR":0,"MEAN_MOTION_DOT":0,"MEAN_MOTION_DDOT":0},{"OBJECT_NAME":"XM-5","OBJECT_ID":"2010-053A","EPOCH":"2026-03-04T11:43:38.558208","MEAN_MOTION":1.0027021,"ECCENTRICITY":0.000326,"INCLINATION":0.0669,"RA_OF_ASC_NODE":274.6489,"ARG_OF_PERICENTER":252.842,"MEAN_ANOMALY":55.4355,"EPHEMERIS_TYPE":0,"CLASSIFICATION_TYPE":"U","NORAD_CAT_ID":37185,"ELEMENT_SET_NO":999,"REV_AT_EPOCH":5643,"BSTAR":0,"MEAN_MOTION_DOT":-3.4e-7,"MEAN_MOTION_DDOT":0},{"OBJECT_NAME":"INTELSAT 17 (IS-17)","OBJECT_ID":"2010-065B","EPOCH":"2026-03-04T15:37:22.537920","MEAN_MOTION":1.00272648,"ECCENTRICITY":0.0002426,"INCLINATION":0.0187,"RA_OF_ASC_NODE":197.9066,"ARG_OF_PERICENTER":151.6096,"MEAN_ANOMALY":113.2049,"EPHEMERIS_TYPE":0,"CLASSIFICATION_TYPE":"U","NORAD_CAT_ID":37238,"ELEMENT_SET_NO":999,"REV_AT_EPOCH":5219,"BSTAR":0,"MEAN_MOTION_DOT":-1.2e-7,"MEAN_MOTION_DDOT":0},{"OBJECT_NAME":"INTELSAT 28 (IS-28)","OBJECT_ID":"2011-016A","EPOCH":"2026-03-04T10:52:38.525952","MEAN_MOTION":1.00272423,"ECCENTRICITY":0.0004655,"INCLINATION":1.5355,"RA_OF_ASC_NODE":83.9838,"ARG_OF_PERICENTER":258.1783,"MEAN_ANOMALY":311.4864,"EPHEMERIS_TYPE":0,"CLASSIFICATION_TYPE":"U","NORAD_CAT_ID":37392,"ELEMENT_SET_NO":999,"REV_AT_EPOCH":5223,"BSTAR":0,"MEAN_MOTION_DOT":-2.36e-6,"MEAN_MOTION_DDOT":0},{"OBJECT_NAME":"INTELSAT 18 (IS-18)","OBJECT_ID":"2011-056A","EPOCH":"2026-03-04T13:40:38.508096","MEAN_MOTION":1.00273685,"ECCENTRICITY":0.0001963,"INCLINATION":0.0434,"RA_OF_ASC_NODE":271.582,"ARG_OF_PERICENTER":66.2057,"MEAN_ANOMALY":209.6609,"EPHEMERIS_TYPE":0,"CLASSIFICATION_TYPE":"U","NORAD_CAT_ID":37834,"ELEMENT_SET_NO":999,"REV_AT_EPOCH":5276,"BSTAR":0,"MEAN_MOTION_DOT":4.2e-7,"MEAN_MOTION_DDOT":0},{"OBJECT_NAME":"INTELSAT 22 (IS-22)","OBJECT_ID":"2012-011A","EPOCH":"2026-03-04T15:39:02.018016","MEAN_MOTION":1.00273685,"ECCENTRICITY":0.0001592,"INCLINATION":0.0206,"RA_OF_ASC_NODE":218.9509,"ARG_OF_PERICENTER":146.6941,"MEAN_ANOMALY":103.6211,"EPHEMERIS_TYPE":0,"CLASSIFICATION_TYPE":"U","NORAD_CAT_ID":38098,"ELEMENT_SET_NO":999,"REV_AT_EPOCH":614,"BSTAR":0,"MEAN_MOTION_DOT":-7.0e-7,"MEAN_MOTION_DDOT":0},{"OBJECT_NAME":"INTELSAT 19 (IS-19)","OBJECT_ID":"2012-030A","EPOCH":"2026-03-04T14:44:38.804928","MEAN_MOTION":1.00270205,"ECCENTRICITY":0.0003158,"INCLINATION":0.0251,"RA_OF_ASC_NODE":148.6726,"ARG_OF_PERICENTER":213.0614,"MEAN_ANOMALY":187.8067,"EPHEMERIS_TYPE":0,"CLASSIFICATION_TYPE":"U","NORAD_CAT_ID":38356,"ELEMENT_SET_NO":999,"REV_AT_EPOCH":4940,"BSTAR":0,"MEAN_MOTION_DOT":0,"MEAN_MOTION_DDOT":0},{"OBJECT_NAME":"INTELSAT 20 (IS-20)","OBJECT_ID":"2012-043A","EPOCH":"2026-03-04T15:12:23.090112","MEAN_MOTION":1.00272783,"ECCENTRICITY":0.0002415,"INCLINATION":0.0219,"RA_OF_ASC_NODE":130.7491,"ARG_OF_PERICENTER":35.5488,"MEAN_ANOMALY":292.6685,"EPHEMERIS_TYPE":0,"CLASSIFICATION_TYPE":"U","NORAD_CAT_ID":38740,"ELEMENT_SET_NO":999,"REV_AT_EPOCH":4969,"BSTAR":0,"MEAN_MOTION_DOT":-3.5e-7,"MEAN_MOTION_DDOT":0},{"OBJECT_NAME":"INTELSAT 21 (IS-21)","OBJECT_ID":"2012-045A","EPOCH":"2026-03-04T03:36:38.720160","MEAN_MOTION":1.0027081,"ECCENTRICITY":0.00017803,"INCLINATION":0.0358,"RA_OF_ASC_NODE":264.1524,"ARG_OF_PERICENTER":84.9537,"MEAN_ANOMALY":168.9512,"EPHEMERIS_TYPE":0,"CLASSIFICATION_TYPE":"U","NORAD_CAT_ID":38749,"ELEMENT_SET_NO":999,"REV_AT_EPOCH":4947,"BSTAR":0,"MEAN_MOTION_DOT":-2.97e-6,"MEAN_MOTION_DDOT":0}]
