DIRECTV 11              
1 32729U 08013A   26063.18586578 -.00000138  00000+0  00000+0 0  9991
2 32729   0.0179 324.7273 0000293  11.5203 153.3998  1.00271748 44541
GALAXY 18 (G-18)        
1 32951U 08024A   26063.40391836  .00000000  00000+0  00000+0 0  9993
2 32951   0.0238 162.5598 0003198 205.0140 177.0059  1.00270856 44808
INTELSAT 25 (IS-25)     
1 33153U 08034A   26063.45322368 -.00000235  00000+0  00000+0 0  9999
2 33153   2.4376  81.6189 0003741 244.8618 327.3647  1.00270409 64645
GALAXY 19 (G-19)        
1 33376U 08045A   26063.30600315 -.00000151  00000+0  00000+0 0  9990
2 33376   0.0498 264.9776 0003127  91.8237 178.3953  1.00271876 63859
FM-5                    
1 35493U 09034A   26063.64660368 -.00000211  00000+0  00000+0 0  9999
2 35493   0.0390 273.6720 0000842 315.9649  79.3535  1.00270141 45597
INTELSAT 14 (IS-14)     
1 36097U 09064A   26063.33794595 -.00000285  00000+0  00000+0 0  9990
2 36097   0.0205  94.5133 0002590 264.2434 239.9777  1.00271298 59558
INTELSAT 15 (IS-15)     
1 36106U 09067A   26063.75322707 -.00000195  00000+0  00000+0 0  9992
2 36106   0.0197 204.6455 0002401 150.0110 164.1279  1.00269962 40184
DIRECTV 12              
1 36131U 09075A   26063.35669706 -.00000115  00000+0  00000+0 0  9990
2 36131   0.0183 331.5453 0000356  37.6752 178.5747  1.00272003 45504
INTELSAT 16 (IS-16)     
1 36397U 10006A   26063.29489050  .00000000  00000+0  00000+0 0  9997
2 36397   0.0246 131.0947 0002048 226.9808 193.9417  1.00268007 58603
XM-5                    
1 37185U 10053A   26063.48864072 -.00000034  00000+0  00000+0 0  9995
2 37185   0.0669 274.6489 0003260 252.8420  55.4355  1.00270210 56439
INTELSAT 17 (IS-17)     
1 37238U 10065B   26063.65095530 -.00000012  00000+0  00000+0 0  9997
2 37238   0.0187 197.9066 0002426 151.6096 113.2049  1.00272648 52198
INTELSAT 28 (IS-28)     
1 37392U 11016A   26063.45322368 -.00000236  00000+0  00000+0 0  9993
2 37392   1.5355  83.9838 0004655 258.1783 311.4864  1.00272423 52238
INTELSAT 18 (IS-18)     
1 37834U 11056A   26063.56989014  .00000042  00000+0  00000+0 0  9991
2 37834   0.0434 271.5820 0001963  66.2057 209.6609  1.00273685 52762
INTELSAT 22 (IS-22)     
1 38098U 12011A   26063.65210669 -.00000070  00000+0  00000+0 0  9991
2 38098   0.0206 218.9509 0001592 146.6941 103.6211  1.00273685  6147
INTELSAT 19 (IS-19)     
1 38356U 12030A   26063.61433802  .00000000  00000+0  00000+0 0  9993
2 38356   0.0251 148.6726 0003158 213.0614 187.8067  1.00270205 49404
INTELSAT 20 (IS-20)     
1 38740U 12043A   26063.63360058 -.00000035  00000+0  00000+0 0  9997
2 38740   0.0219 130.7491 0002415  35.5488 292.6685  1.00272783 49692
INTELSAT 21 (IS-21)     
1 38749U 12045A   26063.15044815 -.00000297  00000+0  00000+0 0  9995
2 38749   0.0358 264.1524 0001780  84.9537 168.9512  1.00270810 49470
